CCSDS_OMM_VERS = 2.0
CREATION_DATE  = 
ORIGINATOR     = 

OBJECT_NAME    = SL-14 R/B
OBJECT_ID      = 1986-046B
CENTER_NAME    = EARTH
REF_FRAME      = TEME
TIME_SYSTEM    = UTC
MEAN_ELEMENT_THEORY = SGP/SGP4

EPOCH          = 2026-01-27T17:17:12.949728
MEAN_MOTION    = 14.85547818
ECCENTRICITY   = .00232314
INCLINATION    = 82.4832
RA_OF_ASC_NODE = 118.8929
ARG_OF_PERICENTER = 7.2762
MEAN_ANOMALY   = 352.8786

EPHEMERIS_TYPE = 0
CLASSIFICATION_TYPE = U
NORAD_CAT_ID   = 16792
ELEMENT_SET_NO = 999
REV_AT_EPOCH   = 12032
BSTAR          = .89453861E-4
MEAN_MOTION_DOT = .8E-5
MEAN_MOTION_DDOT = 0

CCSDS_OMM_VERS = 2.0
CREATION_DATE  = 
ORIGINATOR     = 

OBJECT_NAME    = SL-14 R/B
OBJECT_ID      = 1986-055B
CENTER_NAME    = EARTH
REF_FRAME      = TEME
TIME_SYSTEM    = UTC
MEAN_ELEMENT_THEORY = SGP/SGP4

EPOCH          = 2026-01-27T20:52:44.872320
MEAN_MOTION    = 14.85594306
ECCENTRICITY   = .00203443
INCLINATION    = 82.5223
RA_OF_ASC_NODE = 165.0265
ARG_OF_PERICENTER = 106.1532
MEAN_ANOMALY   = 51.6475

EPHEMERIS_TYPE = 0
CLASSIFICATION_TYPE = U
NORAD_CAT_ID   = 16882
ELEMENT_SET_NO = 999
REV_AT_EPOCH   = 11330
BSTAR          = .1020354E-3
MEAN_MOTION_DOT = .91E-5
MEAN_MOTION_DDOT = 0

CCSDS_OMM_VERS = 2.0
CREATION_DATE  = 
ORIGINATOR     = 

OBJECT_NAME    = AJISAI (EGS)
OBJECT_ID      = 1986-061A
CENTER_NAME    = EARTH
REF_FRAME      = TEME
TIME_SYSTEM    = UTC
MEAN_ELEMENT_THEORY = SGP/SGP4

EPOCH          = 2026-01-28T00:01:13.108224
MEAN_MOTION    = 12.44515289
ECCENTRICITY   = .00112719
INCLINATION    = 50.0062
RA_OF_ASC_NODE = 218.4665
ARG_OF_PERICENTER = 182.3665
MEAN_ANOMALY   = 251.3349

EPHEMERIS_TYPE = 0
CLASSIFICATION_TYPE = U
NORAD_CAT_ID   = 16908
ELEMENT_SET_NO = 999
REV_AT_EPOCH   = 46293
BSTAR          = .16609888E-3
MEAN_MOTION_DOT = -.74E-6
MEAN_MOTION_DDOT = 0

CCSDS_OMM_VERS = 2.0
CREATION_DATE  = 
ORIGINATOR     = 

OBJECT_NAME    = COSMOS 1812
OBJECT_ID      = 1987-003A
CENTER_NAME    = EARTH
REF_FRAME      = TEME
TIME_SYSTEM    = UTC
MEAN_ELEMENT_THEORY = SGP/SGP4

EPOCH          = 2026-01-27T20:37:27.894432
MEAN_MOTION    = 15.89078484
ECCENTRICITY   = .00009834
INCLINATION    = 82.4796
RA_OF_ASC_NODE = 241.6446
ARG_OF_PERICENTER = 37.7514
MEAN_ANOMALY   = 322.3827

EPHEMERIS_TYPE = 0
CLASSIFICATION_TYPE = U
NORAD_CAT_ID   = 17295
ELEMENT_SET_NO = 999
REV_AT_EPOCH   = 13794
BSTAR          = .79234368E-3
MEAN_MOTION_DOT = .230806E-2
MEAN_MOTION_DDOT = 0

CCSDS_OMM_VERS = 2.0
CREATION_DATE  = 
ORIGINATOR     = 

OBJECT_NAME    = SL-14 R/B
OBJECT_ID      = 1987-024B
CENTER_NAME    = EARTH
REF_FRAME      = TEME
TIME_SYSTEM    = UTC
MEAN_ELEMENT_THEORY = SGP/SGP4

EPOCH          = 2026-01-27T18:26:48.163200
MEAN_MOTION    = 14.86089167
ECCENTRICITY   = .00191722
INCLINATION    = 82.5304
RA_OF_ASC_NODE = 131.2183
ARG_OF_PERICENTER = 40.0767
MEAN_ANOMALY   = 320.1860

EPHEMERIS_TYPE = 0
CLASSIFICATION_TYPE = U
NORAD_CAT_ID   = 17567
ELEMENT_SET_NO = 999
REV_AT_EPOCH   = 8205
BSTAR          = .94868264E-4
MEAN_MOTION_DOT = .857E-5
MEAN_MOTION_DDOT = 0

CCSDS_OMM_VERS = 2.0
CREATION_DATE  = 
ORIGINATOR     = 

OBJECT_NAME    = COSMOS 1833
OBJECT_ID      = 1987-027A
CENTER_NAME    = EARTH
REF_FRAME      = TEME
TIME_SYSTEM    = UTC
MEAN_ELEMENT_THEORY = SGP/SGP4

EPOCH          = 2026-01-27T12:27:37.998720
MEAN_MOTION    = 14.13052162
ECCENTRICITY   = .0024617
INCLINATION    = 70.9196
RA_OF_ASC_NODE = 52.5475
ARG_OF_PERICENTER = 269.1865
MEAN_ANOMALY   = 90.6435

EPHEMERIS_TYPE = 0
CLASSIFICATION_TYPE = U
NORAD_CAT_ID   = 17589
ELEMENT_SET_NO = 999
REV_AT_EPOCH   = 450
BSTAR          = .13850115E-3
MEAN_MOTION_DOT = .211E-5
MEAN_MOTION_DDOT = 0

CCSDS_OMM_VERS = 2.0
CREATION_DATE  = 
ORIGINATOR     = 

OBJECT_NAME    = SL-16 R/B
OBJECT_ID      = 1987-027B
CENTER_NAME    = EARTH
REF_FRAME      = TEME
TIME_SYSTEM    = UTC
MEAN_ELEMENT_THEORY = SGP/SGP4

EPOCH          = 2026-01-27T16:23:01.346208
MEAN_MOTION    = 14.17160741
ECCENTRICITY   = .00058028
INCLINATION    = 71.0039
RA_OF_ASC_NODE = 2.9040
ARG_OF_PERICENTER = 208.2647
MEAN_ANOMALY   = 151.8163

EPHEMERIS_TYPE = 0
CLASSIFICATION_TYPE = U
NORAD_CAT_ID   = 17590
ELEMENT_SET_NO = 999
REV_AT_EPOCH   = 953
BSTAR          = .13889233E-3
MEAN_MOTION_DOT = .232E-5
MEAN_MOTION_DDOT = 0

CCSDS_OMM_VERS = 2.0
CREATION_DATE  = 
ORIGINATOR     = 

OBJECT_NAME    = SL-14 R/B
OBJECT_ID      = 1987-038B
CENTER_NAME    = EARTH
REF_FRAME      = TEME
TIME_SYSTEM    = UTC
MEAN_ELEMENT_THEORY = SGP/SGP4

EPOCH          = 2026-01-27T19:26:11.250816
MEAN_MOTION    = 14.85323477
ECCENTRICITY   = .00179361
INCLINATION    = 82.5038
RA_OF_ASC_NODE = 335.3065
ARG_OF_PERICENTER = 302.7174
MEAN_ANOMALY   = 57.2312

EPHEMERIS_TYPE = 0
CLASSIFICATION_TYPE = U
NORAD_CAT_ID   = 17912
ELEMENT_SET_NO = 999
REV_AT_EPOCH   = 7316
BSTAR          = .10852372E-3
MEAN_MOTION_DOT = .959E-5
MEAN_MOTION_DDOT = 0

CCSDS_OMM_VERS = 2.0
CREATION_DATE  = 
ORIGINATOR     = 

OBJECT_NAME    = COSMOS 1844
OBJECT_ID      = 1987-041A
CENTER_NAME    = EARTH
REF_FRAME      = TEME
TIME_SYSTEM    = UTC
MEAN_ELEMENT_THEORY = SGP/SGP4

EPOCH          = 2026-01-27T16:02:40.699968
MEAN_MOTION    = 14.14534794
ECCENTRICITY   = .00284932
INCLINATION    = 70.8989
RA_OF_ASC_NODE = 120.7027
ARG_OF_PERICENTER = 83.7455
MEAN_ANOMALY   = 276.6911

EPHEMERIS_TYPE = 0
CLASSIFICATION_TYPE = U
NORAD_CAT_ID   = 17973
ELEMENT_SET_NO = 999
REV_AT_EPOCH   = 99778
BSTAR          = -.16788461E-4
MEAN_MOTION_DOT = -.81E-6
MEAN_MOTION_DDOT = 0

CCSDS_OMM_VERS = 2.0
CREATION_DATE  = 
ORIGINATOR     = 

OBJECT_NAME    = SL-14 R/B
OBJECT_ID      = 1987-055B
CENTER_NAME    = EARTH
REF_FRAME      = TEME
TIME_SYSTEM    = UTC
MEAN_ELEMENT_THEORY = SGP/SGP4

EPOCH          = 2026-01-27T22:17:06.506592
MEAN_MOTION    = 14.85577089
ECCENTRICITY   = .00215386
INCLINATION    = 82.4980
RA_OF_ASC_NODE = 27.4464
ARG_OF_PERICENTER = 144.7517
MEAN_ANOMALY   = 215.5128

EPHEMERIS_TYPE = 0
CLASSIFICATION_TYPE = U
NORAD_CAT_ID   = 18153
ELEMENT_SET_NO = 999
REV_AT_EPOCH   = 6388
BSTAR          = .82722203E-4
MEAN_MOTION_DOT = .742E-5
MEAN_MOTION_DDOT = 0

CCSDS_OMM_VERS = 2.0
CREATION_DATE  = 
ORIGINATOR     = 

OBJECT_NAME    = COSMOS 1867
OBJECT_ID      = 1987-060A
CENTER_NAME    = EARTH
REF_FRAME      = TEME
TIME_SYSTEM    = UTC
MEAN_ELEMENT_THEORY = SGP/SGP4

EPOCH          = 2026-01-27T18:45:43.058304
MEAN_MOTION    = 14.31495916
ECCENTRICITY   = .00139783
INCLINATION    = 65.0102
RA_OF_ASC_NODE = 61.2659
ARG_OF_PERICENTER = 275.5273
MEAN_ANOMALY   = 84.4217

EPHEMERIS_TYPE = 0
CLASSIFICATION_TYPE = U
NORAD_CAT_ID   = 18187
ELEMENT_SET_NO = 999
REV_AT_EPOCH   = 1408
BSTAR          = .4693676E-4
MEAN_MOTION_DOT = .25E-6
MEAN_MOTION_DDOT = 0

CCSDS_OMM_VERS = 2.0
CREATION_DATE  = 
ORIGINATOR     = 

OBJECT_NAME    = SL-14 R/B
OBJECT_ID      = 1988-001B
CENTER_NAME    = EARTH
REF_FRAME      = TEME
TIME_SYSTEM    = UTC
MEAN_ELEMENT_THEORY = SGP/SGP4

EPOCH          = 2026-01-27T22:06:23.839200
MEAN_MOTION    = 14.85478533
ECCENTRICITY   = .00185284
INCLINATION    = 82.5103
RA_OF_ASC_NODE = 233.7092
ARG_OF_PERICENTER = 17.8681
MEAN_ANOMALY   = 342.3183

EPHEMERIS_TYPE = 0
CLASSIFICATION_TYPE = U
NORAD_CAT_ID   = 18749
ELEMENT_SET_NO = 999
REV_AT_EPOCH   = 3597
BSTAR          = .71616921E-4
MEAN_MOTION_DOT = .644E-5
MEAN_MOTION_DDOT = 0

